#dP2021  6 13 18  0  0.00000000      96 __u+U ITR00 EXT  IAC
## 2162  64800.00000000   900.00000000 59378 0.7500000000000
+  116   C06C07C08C09C10C11C12C13C14C16C19C20C21C22C23C24C25
+        C26C27C28C29C30C32C33C34C35C36C37C38C39C40C41C42C43
+        C44C45C46E01E02E03E04E05E07E08E09E11E12E13E14E15E18
+        E19E21E24E25E26E27E30E31E33E36G01G02G03G04G05G06G07
+        G08G09G10G12G13G14G15G16G17G18G19G20G21G22G23G24G25
+        G26G27G28G29G30G31G32J01J02J03R01R02R03R04R05R07R08
+        R09R11R12R13R14R15R16R17R18R19R20R21R22R24  0  0  0
++         9  9  9  8  8 10  9  9  9  9  8 10  8  6 10  7  7
++         8 10  8 10  9  8  8  8  9 10  7  9 12  9  8  9  9
++         9 10  8  7  7  7  9  8  7  7  8  7  8  8  7  8  9
++         7  7  7  8  8  8  8  6  8  7  7  8  6  9  6  7  8
++         7  7  6  7  8  7  7  8  7  7  8  8  8  8  6  6  8
++         8  7  9  8  8 10  7  9  7  9  9  9  8  9 10  9  8
++        10  8  8  9  9  7  7  8  9  9  9  8  8 10  0  0  0
%c M  cc GPS ccc cccc cccc cccc cccc ccccc ccccc ccccc ccccc
%c cc cc ccc ccc cccc cccc cccc cccc ccccc ccccc ccccc ccccc
%f  0.0000000  0.000000000  0.00000000000  0.000000000000000
%f  0.0000000  0.000000000  0.00000000000  0.000000000000000
%i    0    0    0    0      0      0      0      0         0
%i    0    0    0    0      0      0      0      0         0
/* IAC                                ULTRA-RAPID PREDICTION
/* S/V CLOCKS ARE ALIGNED TO GNSS TIME                      
/* G:C1WC2W R:C1PC2P E:C1XC5X C:C2IC6I J:C1CC2S             
/* PCV:IGS14_2148 OL/AL:FES2004  NONE     YN ORB:CoN CLK:CoN
*  2021 06 13 22 45  0.00000000
PC06 -18889.119466  37372.979584   -832.843677    499.879617
PC07  -8282.167610  28594.761597  30291.330817     76.648046
PC08 -21170.943052  19973.335315 -30563.541272   -894.257266
PC09  -9536.322236  38516.858080  13905.565327    450.345701
PC10   5823.815007  35454.032123  22642.620164    -30.263746
PC11  -9157.191190 -13447.122456  22720.361639    398.152002
PC12   5392.910140 -24426.261569  12375.927441    845.550549
PC13  -7427.932038  22975.448986 -34508.722053    298.815469
PC14 -16756.223689 -21524.684037  -5701.916452    904.743424
PC16 -17217.151094  38343.971702   1222.664411   -897.227241
PC19  19388.706876  14138.094715  14295.404116    871.448364
PC20  12522.764319  24878.793964  -1999.520102   -877.846752
PC21   2303.955967 -21218.857649  17983.769039   -935.739922
PC22  15254.557422  -5092.317422  22814.965851   -950.344797
PC23 -25848.178593   5793.568905   8781.149903   -934.880391
PC24  -9912.561837 -15307.520358 -21130.091817   -891.938573
PC25 -26048.024833  -5719.025559  -8251.790568   -901.438996
PC26   9801.916765 -15213.046893 -21239.217452    893.127524
PC27 -12275.137730  24783.880007  -3675.428655    547.854271
PC28 -19774.959805  14330.757312  13506.537431    -62.650596
PC29  15806.230655   3931.105690 -22670.903594    405.732052
PC30   2736.815343  20907.608513 -18277.235084    470.583697
PC32  -2107.093468  21264.569652 -17937.515821   -925.453520
PC33 -19445.534242 -14084.191420 -14192.863882   -936.876345
PC34  -3285.258220 -20485.005851  18660.472787   -651.052641
PC35  19352.520767 -14688.693859 -13768.853341   -234.607285
PC36  25727.018000   6573.079685   8618.029918   -727.521724
PC37 -11175.420822  14741.397116  20918.181542   -875.815479
PC38 -17528.076176  22910.192433 -30782.205222    155.106134
PC39 -13655.393819  39722.381711   2530.150144     31.773473
PC40    421.543240  31999.693444  27554.979129    170.715321
PC41 -15395.529646   4843.445037 -22713.527489   -947.638522
PC42 -11983.222231 -25035.091314   2831.224763   -913.659688
PC43 -15603.773048  -4636.919415  22652.866047   -775.134044
PC44  11589.920612 -25173.324693   3413.796188    238.078880
PC45  25774.646441  -5864.815509  -8914.269820    466.487803
PC46  11012.079913  14940.402335  20839.675203    225.638060
PE01    814.261094 -17703.188427 -23706.977305  -1128.667193
PE02   -682.743277  17749.698305  23675.686885    225.913314
PE03  -3216.719226  28845.798265  -5850.296276   -441.648716
PE04  -9463.252393 -25241.148905 -12211.221074   -791.824151
PE05 -14222.999652  15552.516560 -20778.796136   -273.171509
PE07  16822.797826   6663.322382  23439.696134   -549.535996
PE08   9710.759738  24996.802354  12556.392710   5986.453130
PE09 -16726.354435  -6356.179809 -23567.337771   5634.604439
PE11 -23906.819504   1672.854316  17348.480335   5854.456053
PE12  -8287.368875 -13913.452014  24771.073910   5161.554175
PE13  23686.271753  -1439.187143 -17700.137212    417.708615
PE14  -9398.190538 -15244.137202  15093.354925  -1465.179905
PE15   8354.252401  13784.680995 -24825.686753    808.966716
PE18  15335.792525  17371.398954 -22927.489282  -1604.760701
PE19   4703.427656 -28112.832152   7991.826626    301.565798
PE21  19198.517558  -6253.290630 -21645.665784   -670.513516
PE24 -27175.409751 -10015.481505   6145.546669   -953.276114
PE25 -19352.256519   6102.242591  21556.215241   -536.843561
PE26  24817.858152 -16119.375624    664.773335   1696.526766
PE27  27227.469494   9284.251059  -6963.456887    -53.679840
PE30  18320.027380  19581.958031  12516.951895   2865.833125
PE31 -19203.814177 -19246.673381 -11692.230385   -482.180067
PE33  11875.317495 -20865.872447  17319.240046   -469.237908
PE36 -25035.935532  15781.665734    165.284804   -220.559736
PG01  -1430.924045  15788.153549 -21511.764459    659.339538
PG02  21448.479610 -14777.337322   5995.490191   -612.137523
PG03   7518.318957  20045.871273 -15878.430718   -191.207772
PG04   -232.505829  25709.552775   6551.751523   -199.766707
PG05   6388.892786 -14078.482664  21426.971434    -44.860958
PG06  25361.484050  -6057.943423  -5168.639950     26.625873
PG07  14109.209978  10294.143732  20498.087569    177.471823
PG08  -6067.724451  25419.637075   3687.244464    -24.963149
PG09   8449.860237  19725.103788  15579.553929   -350.947874
PG10 -22832.809054 -10176.919550  -9247.749095   -141.769836
PG12  -4772.909573 -20173.541794 -16936.774640    -54.596317
PG13  13145.566167 -20745.445845   9801.102630    144.530968
PG14  22360.517192  10856.534450  -9421.718300     69.605701
PG15   3128.470248 -25982.176035   2866.657790   -142.580902
PG16 -12166.156639   8761.122075  21706.368526   -340.837283
PG17  13686.544435   5305.900205 -21708.942403    458.012679
PG18 -16582.779046  -8010.137036  19152.399284    346.856240
PG19  15820.522335  -4328.035580 -21148.036926     13.010144
PG20   6211.626587 -14482.407361  21348.592847    521.198580
PG21  -9503.249689  17472.769856 -16647.117112    124.841043
PG22  -1054.140261  17077.517679 -20174.770518   -589.204132
PG23 -20473.688948 -16900.913558   1451.504338     97.116904
PG24   5836.093029 -18010.872305 -18721.259361    130.807336
PG25 -15891.422228 -19978.291782  -8079.704875    155.367367
PG26 -19704.638555   1588.479698  17802.048663     98.025288
PG27 -12086.801952  19233.234382  13274.503088   -146.674008
PG28  20897.622140   6823.514075 -14222.621000    555.098960
PG29  -5764.296318 -20739.173321  15473.087621   -363.658413
PG30  23518.098139   1389.850150  12557.842851   -438.620246
PG31 -25668.896010   7416.236243  -2352.964674   -122.906437
PG32 -15110.987597  -2027.041040 -21632.667537     18.572504
PJ01 -20253.033497  24338.161924 -23283.126443   -395.379912
PJ02 -27762.614345  21229.151118  28493.143473     -0.239483
PJ03 -32218.407672  26539.577469  10704.187565     -8.009929
PR01   1337.492352  21954.694897 -12927.908933     80.831395
PR02  10982.345492  21727.291801   7564.052553    482.268919
PR03  12949.429544   7601.896677  20652.584660     37.644908
PR04   7408.421738 -10457.720103  22086.817578     91.180425
PR05  -2077.414746 -22831.313229  11220.610524     73.514779
PR07 -12846.978835  -7061.835244 -20844.625871    -42.340852
PR08  -7436.858073  10560.108705 -21933.872453    -59.481941
PR09 -17292.981565 -10822.086744 -15245.953008     -2.205455
PR11 -18738.723861   4593.371771  16689.452566    -11.853525
PR12   -898.185571  10995.293624  23026.164975    236.954054
PR13  16816.462206  10777.366515  15855.090439    -56.205574
PR14  25133.344827   4233.602441  -1246.735928     65.321334
PR15  18453.202217  -4632.494670 -16971.384334    103.274431
PR16   -665.612117 -11376.611325 -22847.809600    -16.323722
PR17  15537.274904  -3953.523388 -19825.095087    432.424401
PR18  18511.535192 -16411.762363  -6320.147275     79.958212
PR19  12717.401282 -19834.762787   9762.861058   -147.637088
PR20  -2861.146157 -11559.871518  22564.095767    -50.819561
PR21 -16078.594874   5068.160414  19146.204452   -216.331169
PR22 -18387.174788  16789.597802   5284.302571   -117.540170
PR24   3992.237048  11275.923573 -22521.287925     46.422706
EOF
